CCSDS_OMM_VERS,COMMENT,CREATION_DATE,ORIGINATOR,OBJECT_NAME,OBJECT_ID,CENTER_NAME,REF_FRAME,TIME_SYSTEM,MEAN_ELEMENT_THEORY,EPOCH,MEAN_MOTION,ECCENTRICITY,INCLINATION,RA_OF_ASC_NODE,ARG_OF_PERICENTER,MEAN_ANOMALY,EPHEMERIS_TYPE,CLASSIFICATION_TYPE,NORAD_CAT_ID,ELEMENT_SET_NO,REV_AT_EPOCH,BSTAR,MEAN_MOTION_DOT,MEAN_MOTION_DDOT,SEMIMAJOR_AXIS,PERIOD,APOAPSIS,PERIAPSIS,OBJECT_TYPE,RCS_SIZE,COUNTRY_CODE,LAUNCH_DATE,SITE,DECAY_DATE,FILE,GP_ID,TLE_LINE0,TLE_LINE1,TLE_LINE2,NORAD_KEY,JCAT,DeepCat,Satcat,Piece,Active,Type,Name,LDate,Parent,Owner,State,SDate,ExpandedStatus,DDate,ODate,Period,Perigee,PF,Apogee,AF,Inc,IF,OpOrbit,SATCAT_KEY
3.0,GENERATED VIA SPACE-TRACK.ORG API,2026-05-06T07:56:53,18 SPCS,METEOSAT 9 (MSG 2),2005-049B,EARTH,TEME,UTC,SGP4,2026-05-05T20:14:48.914880,1.00279737,8.92e-05,9.2674,54.5755,25.8122,132.8584,0,U,28912,999,657,0.00000000000000,0.00000131,0.0000000000000,42162.503,1435.983,35788.129,35780.607,PAYLOAD,LARGE,EUME,2005-12-21,FRGUI,,5176819,322255717,0 METEOSAT 9 (MSG 2),1 28912U 05049B   26125.84362170  .00000131  00000-0  00000+0 0  9991,2 28912   9.2674  54.5755 0000892  25.8122 132.8584  1.00279737  6577,28912,S28912,-,28912,2005-049B,A,P,Meteosat 9,2005 Dec 21,S28913,EUMET,I-EUM,2005 Dec 21 2309,In Earth orbit,-,2026 May  4 ,    1435.989 ,   35780, ,   35788, ,  9.27 , ,GEO/I,28912
3.0,GENERATED VIA SPACE-TRACK.ORG API,2026-05-06T14:56:52,18 SPCS,HIMAWARI 6,2005-006A,EARTH,TEME,UTC,SGP4,2026-05-06T11:16:16.591008,0.98912033,0.0013846,9.2867,58.9263,287.2933,317.6788,0,U,28622,999,4360,0.00000000000000,-0.00000017,0.0000000000000,42550.28,1455.839,36231.06,36113.23,PAYLOAD,LARGE,JPN,2005-02-26,TNSTA,,5177637,322308953,0 HIMAWARI 6,1 28622U 05006A   26126.46963647 -.00000017  00000-0  00000+0 0  9991,2 28622   9.2867  58.9263 0013846 287.2933 317.6788  0.98912033 43601,28622,S28622,-,28622,2005-006A,P,P,Himawari-6,2005 Feb 26,S28623,JAXA,J,2005 Feb 26 1005,In Earth orbit,-,2026 May  5 ,    1455.834 ,   36112, ,   36231, ,  9.28 , ,GEO/ID,28622
3.0,GENERATED VIA SPACE-TRACK.ORG API,2026-05-06T10:08:52,18 SPCS,AMAZONAS,2004-031A,EARTH,TEME,UTC,SGP4,2026-05-06T01:26:38.771808,0.9845922,0.0010877,9.3091,59.4299,85.8178,119.5778,0,U,28393,999,7906,0.00000000000000,-0.00000108,0.0000000000000,42680.639,1462.534,36348.928,36256.08,PAYLOAD,LARGE,BRAZ,2004-08-04,TTMTR,,5176958,322266454,0 AMAZONAS,1 28393U 04031A   26126.06017097 -.00000108  00000-0  00000-0 0  9990,2 28393   9.3091  59.4299 0010877  85.8178 119.5778  0.98459220 79066,28393,S28393,-,28393,2004-031A,P,P,Amazonas-1,2004 Aug  4,S28394,HISPM/HISP,BR,2004 Aug  5 0743,In Earth orbit,-,2026 May  4 ,    1462.541 ,   36256, ,   36348, ,  9.31 , ,GEO/ID,28393
3.0,GENERATED VIA SPACE-TRACK.ORG API,2026-05-06T02:32:52,18 SPCS,NIMIQ 2,2002-062A,EARTH,TEME,UTC,SGP4,2026-05-05T12:20:45.646080,1.00272137,0.00063303,9.3493,57.3455,344.9562,257.1246,0,U,27632,999,4375,0.00000000000000,-0.00000062,0.0000000000000,42164.633,1436.092,35813.19,35759.807,PAYLOAD,LARGE,CA,2002-12-29,TTMTR,,5176277,322217572,0 NIMIQ 2,1 27632U 02062A   26125.51441720 -.00000062  00000-0  00000-0 0  9999,2 27632   9.3493  57.3455 0006330 344.9562 257.1246  1.00272137 43753,27632,S27632,-,27632,2002-062A,A,P,Nimiq 2,2002 Dec 29,S27633,TCANL,CA,2002 Dec 30 0610,In Earth orbit,-,2026 May  4 ,    1436.092 ,   35759, ,   35813, ,  9.35 , ,GEO/I,27632
3.0,GENERATED VIA SPACE-TRACK.ORG API,2026-05-06T14:46:56,18 SPCS,OPS 8701,1982-019A,EARTH,TEME,UTC,SGP4,2026-05-06T07:55:46.062336,0.98191636,0.0003504,9.3764,309.5446,321.9915,55.6335,0,U,13086,999,2525,0.00000000000000,-0.00000192,0.0000000000000,42758.144,1466.52,36394.991,36365.026,PAYLOAD,,US,1982-03-06,AFETR,,5177243,322299895,0 OPS 8701,1 13086U 82019A   26126.33039424 -.00000192  00000-0  00000+0 0  9995,2 13086   9.3764 309.5446 0003504 321.9915  55.6335  0.98191636 25256,13086,S13086,-,13086,1982-019A,P,P,DSP F10,1982 Mar  6,S13089,SFSSC,US,1982 Mar  7 0210?,In Earth orbit,-,2026 May  5 ,    1466.518 ,   36364, ,   36395, ,  9.38 , ,GEO/ID,13086
3.0,GENERATED VIA SPACE-TRACK.ORG API,2026-05-06T14:46:56,18 SPCS,COSMOS 1540,1984-022A,EARTH,TEME,UTC,SGP4,2026-05-06T13:38:12.720192,1.00284876,0.0006944,9.4073,304.8424,298.1033,260.6184,0,U,14783,999,12060,0.00000000000000,-0.00000094,0.0000000000000,42161.062,1435.909,35812.204,35753.651,PAYLOAD,MEDIUM,CIS,1984-03-02,TTMTR,,5177266,322300186,0 COSMOS 1540,1 14783U 84022A   26126.56820278 -.00000094  00000-0  00000+0 0  9997,2 14783   9.4073 304.8424 0006944 298.1033 260.6184  1.00284876120604,14783,S14783,-,14783,1984-022A,P,P,Kosmos-1540,1984 Mar  2,S14948,VVKOV,SU,1984 Mar  2 1034?,In Earth orbit,-,2026 May  5 ,    1435.910 ,   35753, ,   35812, ,  9.41 , ,GEO/I,14783
3.0,GENERATED VIA SPACE-TRACK.ORG API,2026-05-06T10:08:52,18 SPCS,ASTRA 1G,1997-076A,EARTH,TEME,UTC,SGP4,2026-05-06T01:34:38.461152,0.99040796,0.00052064,9.4108,55.2643,154.2069,39.6783,0,U,25071,999,10395,0.00000000000000,-0.00000160,0.0000000000000,42513.392,1453.946,36157.391,36113.123,PAYLOAD,LARGE,SES,1997-12-02,TTMTR,,5176958,322265770,0 ASTRA 1G,1 25071U 97076A   26126.06572293 -.00000160  00000-0  00000-0 0  9993,2 25071   9.4108  55.2643 0005206 154.2069  39.6783  0.99040796103952,25071,S25071,-,25071,1997-076A,P,P      G,Astra 1G,1997 Dec  2,S25074,SESSA,L,1997 Dec  3 0551,In Earth orbit,-,2026 May  5 ,    1453.949 ,   36113, ,   36157, ,  9.41 , ,GEO/ID,25071
3.0,GENERATED VIA SPACE-TRACK.ORG API,2026-05-06T14:46:56,18 SPCS,GORIZONT 7,1983-066A,EARTH,TEME,UTC,SGP4,2026-05-06T11:08:29.097024,0.98348436,0.0013272,9.412,312.8012,347.5654,30.8526,0,U,14160,999,15434,0.00000000000000,-0.00000114,0.0000000000000,42712.685,1464.182,36391.238,36277.861,PAYLOAD,LARGE,CIS,1983-06-30,TTMTR,,5177258,322300089,0 GORIZONT 7,1 14160U 83066A   26126.46422566 -.00000114  00000-0  00000+0 0  9993,2 14160   9.4120 312.8012 0013272 347.5654  30.8526  0.98348436154342,14160,S14160,-,14160,1983-066A,P,P,Gorizont,1983 Jun 30,S15141,KS,SU,1983 Jul  1 0633?,In Earth orbit,-,2026 May  4 ,    1464.174 ,   36277, ,   36391, ,  9.41 , ,GEO/ID,14160
3.0,GENERATED VIA SPACE-TRACK.ORG API,2026-05-06T10:08:52,18 SPCS,ECHOSTAR 3,1997-059A,EARTH,TEME,UTC,SGP4,2026-05-06T04:51:51.661728,0.98872481,0.00155476,9.4292,56.1685,347.0926,351.9044,0,U,25004,999,10418,0.00000000000000,-0.00000050,0.0000000000000,42561.627,1456.421,36249.665,36117.319,PAYLOAD,LARGE,US,1997-10-05,AFETR,,5176958,322265759,0 ECHOSTAR 3,1 25004U 97059A   26126.20268127 -.00000050  00000-0  00000-0 0  9992,2 25004   9.4292  56.1685 0015548 347.0926 351.9044  0.98872481104181,25004,S25004,-,25004,1997-059A,P,P,Echostar III,1997 Oct  5,S25005,ECHOC,US,1997 Oct  5 2129,In Earth orbit,-,2026 May  5 ,    1456.415 ,   36117, ,   36249, ,  9.43 , ,GEO/ID,25004
3.0,GENERATED VIA SPACE-TRACK.ORG API,2026-05-06T14:46:56,18 SPCS,GOES 5,1981-049A,EARTH,TEME,UTC,SGP4,2026-05-06T11:22:15.202848,1.0020432,0.0003513,9.434,315.9586,344.8467,350.6459,0,U,12472,999,12242,0.00000000000000,-0.00000101,0.0000000000000,42183.655,1437.064,35820.34,35790.701,PAYLOAD,LARGE,US,1981-05-22,AFETR,,5177229,322299228,0 GOES 5,1 12472U 81049A   26126.47378707 -.00000101  00000-0  00000+0 0  9990,2 12472   9.4340 315.9586 0003513 344.8467 350.6459  1.00204320122428,12472,S12472,-,12472,1981-049A,P,P,GOES 5,1981 May 22,S12494,NOAA,US,1981 May 22 2253,In Earth orbit,-,2026 May  5 ,    1437.063 ,   35790, ,   35820, ,  9.44 , ,GEO/ID,12472
3.0,GENERATED VIA SPACE-TRACK.ORG API,2026-05-06T15:06:46,18 SPCS,EUTE 8A (SINOSAT 3),2007-021A,EARTH,TEME,UTC,SGP4,2026-05-06T10:44:01.440960,0.98335361,0.0013736,9.4759,48.5218,101.9196,88.7339,0,U,31577,999,4102,0.00000000000000,-0.00000052,0.0000000000000,42716.471,1464.377,36397.011,36279.66,PAYLOAD,LARGE,EUTE,2007-05-31,XSC,,5177771,322311907,0 EUTE 8A (SINOSAT 3),1 31577U 07021A   26126.44723890 -.00000052  00000-0  00000+0 0  9994,2 31577   9.4759  48.5218 0013736 101.9196  88.7339  0.98335361 41027,31577,S31577,-,31577,2007-021A,P,P,EUTELSAT 8 WEST D,2007 May 31,S31578,EUTSA,F,2007 May 31 1632,In Earth orbit,-,2026 May  4 ,    1464.387 ,   36280, ,   36397, ,  9.47 , ,GEO/ID,31577
3.0,GENERATED VIA SPACE-TRACK.ORG API,2026-05-06T14:56:52,18 SPCS,RADUGA 16,1985-070A,EARTH,TEME,UTC,SGP4,2026-05-06T06:04:55.555392,1.00280883,0.0002195,9.4881,317.0989,322.3938,223.959,0,U,15946,999,12180,0.00000000000000,0.00000084,0.0000000000000,42162.182,1435.967,35793.301,35774.792,PAYLOAD,LARGE,CIS,1985-08-08,TTMTR,,5177376,322302561,0 RADUGA 16,1 15946U 85070A   26126.25342078  .00000084  00000-0  00000+0 0  9994,2 15946   9.4881 317.0989 0002195 322.3938 223.9590  1.00280883121803,15946,S15946,-,15946,1985-070A,P,P,Raduga,1985 Aug  8,S15963,VVKOV,SU,1985 Aug  9 0337?,In Earth orbit,-,2026 May  5 ,    1435.972 ,   35774, ,   35793, ,  9.49 , ,GEO/I,15946
3.0,GENERATED VIA SPACE-TRACK.ORG API,2026-05-06T14:56:52,18 SPCS,ASTRA 2B,2000-054A,EARTH,TEME,UTC,SGP4,2026-05-06T11:24:34.668000,0.98914805,0.0009742,9.4905,56.5483,172.1171,58.3508,0,U,26494,999,4622,0.00000000000000,0.00000046,0.0000000000000,42549.485,1455.798,36212.802,36129.898,PAYLOAD,LARGE,SES,2000-09-14,FRGUI,,5177593,322307841,0 ASTRA 2B,1 26494U 00054A   26126.47540125  .00000046  00000-0  00000+0 0  9998,2 26494   9.4905  56.5483 0009742 172.1171  58.3508  0.98914805 46224,26494,S26494,-,26494,2000-054A,P,P      G,Astra 2B,2000 Sep 14,S26496,SESSA,L,2000 Sep 14 2322,In Earth orbit,-,2026 May  5 ,    1455.797 ,   36130, ,   36212, ,  9.49 , ,GEO/ID,26494
